let sat = [{"OBJECT_NAME":"STARLINK-3787","OBJECT_ID":"2022-041S","EPOCH":"2022-09-08T06:00:00.999648","MEAN_MOTION":15.08852086,"ECCENTRICITY":0.0001566,"INCLINATION":53.2176,"RA_OF_ASC_NODE":88.2495,"ARG_OF_PERICENTER":60.8947,"MEAN_ANOMALY":324.1407,"EPHEMERIS_TYPE":0,"CLASSIFICATION_TYPE":"U","NORAD_CAT_ID":52277,"ELEMENT_SET_NO":999,"REV_AT_EPOCH":2259,"BSTAR":-0.0013564,"MEAN_MOTION_DOT":-0.00021817,"MEAN_MOTION_DDOT":0},{"OBJECT_NAME":"STARLINK-3780","OBJECT_ID":"2022-041T","EPOCH":"2022-09-08T06:00:00.999648","MEAN_MOTION":15.08864089,"ECCENTRICITY":0.000164,"INCLINATION":53.2177,"RA_OF_ASC_NODE":88.2535,"ARG_OF_PERICENTER":68.0766,"MEAN_ANOMALY":17.0072,"EPHEMERIS_TYPE":0,"CLASSIFICATION_TYPE":"U","NORAD_CAT_ID":52278,"ELEMENT_SET_NO":999,"REV_AT_EPOCH":2259,"BSTAR":-0.0022552,"MEAN_MOTION_DOT":-0.00036024,"MEAN_MOTION_DDOT":0},{"OBJECT_NAME":"STARLINK-3686","OBJECT_ID":"2022-041U","EPOCH":"2022-09-07T22:00:00.999936","MEAN_MOTION":15.08811906,"ECCENTRICITY":0.0001767,"INCLINATION":53.2192,"RA_OF_ASC_NODE":89.7486,"ARG_OF_PERICENTER":57.4553,"MEAN_ANOMALY":330.8628,"EPHEMERIS_TYPE":0,"CLASSIFICATION_TYPE":"U","NORAD_CAT_ID":52279,"ELEMENT_SET_NO":999,"REV_AT_EPOCH":130,"BSTAR":0.0012331,"MEAN_MOTION_DOT":0.00019376,"MEAN_MOTION_DDOT":0},{"OBJECT_NAME":"STARLINK-3764","OBJECT_ID":"2022-041V","EPOCH":"2022-09-07T22:00:00.999936","MEAN_MOTION":15.08821096,"ECCENTRICITY":0.0002245,"INCLINATION":53.2175,"RA_OF_ASC_NODE":89.7667,"ARG_OF_PERICENTER":61.4777,"MEAN_ANOMALY":71.9068,"EPHEMERIS_TYPE":0,"CLASSIFICATION_TYPE":"U","NORAD_CAT_ID":52280,"ELEMENT_SET_NO":999,"REV_AT_EPOCH":130,"BSTAR":0.0014253,"MEAN_MOTION_DOT":0.00022457,"MEAN_MOTION_DDOT":0},{"OBJECT_NAME":"STARLINK-3779","OBJECT_ID":"2022-041W","EPOCH":"2022-09-08T06:00:00.999648","MEAN_MOTION":15.08839348,"ECCENTRICITY":0.0001587,"INCLINATION":53.2183,"RA_OF_ASC_NODE":88.2509,"ARG_OF_PERICENTER":62.275,"MEAN_ANOMALY":357.6725,"EPHEMERIS_TYPE":0,"CLASSIFICATION_TYPE":"U","NORAD_CAT_ID":52281,"ELEMENT_SET_NO":999,"REV_AT_EPOCH":2259,"BSTAR":-0.0019539,"MEAN_MOTION_DOT":-0.00031249,"MEAN_MOTION_DDOT":0},{"OBJECT_NAME":"STARLINK-3783","OBJECT_ID":"2022-041X","EPOCH":"2022-09-07T22:00:00.999936","MEAN_MOTION":15.08836953,"ECCENTRICITY":0.0001987,"INCLINATION":53.2146,"RA_OF_ASC_NODE":79.7504,"ARG_OF_PERICENTER":57.5746,"MEAN_ANOMALY":110.93,"EPHEMERIS_TYPE":0,"CLASSIFICATION_TYPE":"U","NORAD_CAT_ID":52282,"ELEMENT_SET_NO":999,"REV_AT_EPOCH":130,"BSTAR":0.0010756,"MEAN_MOTION_DOT":0.0001687,"MEAN_MOTION_DDOT":0},{"OBJECT_NAME":"STARLINK-3789","OBJECT_ID":"2022-041Y","EPOCH":"2022-09-07T22:00:00.999936","MEAN_MOTION":15.08816139,"ECCENTRICITY":0.0001734,"INCLINATION":53.2188,"RA_OF_ASC_NODE":89.76,"ARG_OF_PERICENTER":59.4052,"MEAN_ANOMALY":34.1074,"EPHEMERIS_TYPE":0,"CLASSIFICATION_TYPE":"U","NORAD_CAT_ID":52283,"ELEMENT_SET_NO":999,"REV_AT_EPOCH":130,"BSTAR":0.0013393,"MEAN_MOTION_DOT":0.00021077,"MEAN_MOTION_DDOT":0},{"OBJECT_NAME":"STARLINK-3561","OBJECT_ID":"2022-041Z","EPOCH":"2022-09-07T22:00:00.999936","MEAN_MOTION":15.08836104,"ECCENTRICITY":0.0001884,"INCLINATION":53.2153,"RA_OF_ASC_NODE":79.7499,"ARG_OF_PERICENTER":58.7273,"MEAN_ANOMALY":149.7963,"EPHEMERIS_TYPE":0,"CLASSIFICATION_TYPE":"U","NORAD_CAT_ID":52284,"ELEMENT_SET_NO":999,"REV_AT_EPOCH":130,"BSTAR":0.0011223,"MEAN_MOTION_DOT":0.00017617,"MEAN_MOTION_DDOT":0},{"OBJECT_NAME":"STARLINK-3775","OBJECT_ID":"2022-041AA","EPOCH":"2022-09-07T22:00:00.999936","MEAN_MOTION":15.08810959,"ECCENTRICITY":0.0001856,"INCLINATION":53.2179,"RA_OF_ASC_NODE":89.7658,"ARG_OF_PERICENTER":61.0163,"MEAN_ANOMALY":52.4837,"EPHEMERIS_TYPE":0,"CLASSIFICATION_TYPE":"U","NORAD_CAT_ID":52285,"ELEMENT_SET_NO":999,"REV_AT_EPOCH":130,"BSTAR":0.0013932,"MEAN_MOTION_DOT":0.00021937,"MEAN_MOTION_DDOT":0},{"OBJECT_NAME":"STARLINK-3802","OBJECT_ID":"2022-041AB","EPOCH":"2022-09-07T22:00:00.999936","MEAN_MOTION":15.0880518,"ECCENTRICITY":0.0001733,"INCLINATION":53.2148,"RA_OF_ASC_NODE":79.7471,"ARG_OF_PERICENTER":58.7036,"MEAN_ANOMALY":189.8073,"EPHEMERIS_TYPE":0,"CLASSIFICATION_TYPE":"U","NORAD_CAT_ID":52286,"ELEMENT_SET_NO":999,"REV_AT_EPOCH":130,"BSTAR":0.00239,"MEAN_MOTION_DOT":0.00037918,"MEAN_MOTION_DDOT":0},{"OBJECT_NAME":"STARLINK-3822","OBJECT_ID":"2022-041AC","EPOCH":"2022-09-08T06:00:00.999648","MEAN_MOTION":15.08849239,"ECCENTRICITY":0.000175,"INCLINATION":53.2167,"RA_OF_ASC_NODE":88.2667,"ARG_OF_PERICENTER":69.5044,"MEAN_ANOMALY":95.5113,"EPHEMERIS_TYPE":0,"CLASSIFICATION_TYPE":"U","NORAD_CAT_ID":52287,"ELEMENT_SET_NO":999,"REV_AT_EPOCH":2259,"BSTAR":-0.0012281,"MEAN_MOTION_DOT":-0.00019785,"MEAN_MOTION_DDOT":0},{"OBJECT_NAME":"STARLINK-3776","OBJECT_ID":"2022-041AD","EPOCH":"2022-09-07T22:00:00.999936","MEAN_MOTION":15.08807595,"ECCENTRICITY":0.0001785,"INCLINATION":53.216,"RA_OF_ASC_NODE":79.7519,"ARG_OF_PERICENTER":59.9923,"MEAN_ANOMALY":208.5199,"EPHEMERIS_TYPE":0,"CLASSIFICATION_TYPE":"U","NORAD_CAT_ID":52288,"ELEMENT_SET_NO":999,"REV_AT_EPOCH":130,"BSTAR":0.0024018,"MEAN_MOTION_DOT":0.0003811,"MEAN_MOTION_DDOT":0},{"OBJECT_NAME":"STARLINK-3751","OBJECT_ID":"2022-041AE","EPOCH":"2022-09-07T22:00:00.999936","MEAN_MOTION":15.08813225,"ECCENTRICITY":0.0001735,"INCLINATION":53.2158,"RA_OF_ASC_NODE":79.7529,"ARG_OF_PERICENTER":66.2028,"MEAN_ANOMALY":122.2479,"EPHEMERIS_TYPE":0,"CLASSIFICATION_TYPE":"U","NORAD_CAT_ID":52289,"ELEMENT_SET_NO":999,"REV_AT_EPOCH":130,"BSTAR":0.0022931,"MEAN_MOTION_DOT":0.00036369,"MEAN_MOTION_DDOT":0},{"OBJECT_NAME":"STARLINK-3772","OBJECT_ID":"2022-041AF","EPOCH":"2022-09-07T22:00:00.999936","MEAN_MOTION":15.08837928,"ECCENTRICITY":0.0001573,"INCLINATION":53.2158,"RA_OF_ASC_NODE":79.7518,"ARG_OF_PERICENTER":60.9914,"MEAN_ANOMALY":262.3354,"EPHEMERIS_TYPE":0,"CLASSIFICATION_TYPE":"U","NORAD_CAT_ID":52290,"ELEMENT_SET_NO":999,"REV_AT_EPOCH":130,"BSTAR":0.00075945,"MEAN_MOTION_DOT":0.00011819,"MEAN_MOTION_DDOT":0},{"OBJECT_NAME":"STARLINK-3773","OBJECT_ID":"2022-041AG","EPOCH":"2022-09-07T22:00:00.999936","MEAN_MOTION":15.08821279,"ECCENTRICITY":0.0001831,"INCLINATION":53.2154,"RA_OF_ASC_NODE":79.7505,"ARG_OF_PERICENTER":57.9321,"MEAN_ANOMALY":170.5658,"EPHEMERIS_TYPE":0,"CLASSIFICATION_TYPE":"U","NORAD_CAT_ID":52291,"ELEMENT_SET_NO":999,"REV_AT_EPOCH":130,"BSTAR":0.0023896,"MEAN_MOTION_DOT":0.00037928,"MEAN_MOTION_DDOT":0},{"OBJECT_NAME":"STARLINK-3753","OBJECT_ID":"2022-041AH","EPOCH":"2022-09-07T22:00:00.999936","MEAN_MOTION":15.08812643,"ECCENTRICITY":0.0001601,"INCLINATION":53.2162,"RA_OF_ASC_NODE":79.7452,"ARG_OF_PERICENTER":73.7985,"MEAN_ANOMALY":274.6574,"EPHEMERIS_TYPE":0,"CLASSIFICATION_TYPE":"U","NORAD_CAT_ID":52292,"ELEMENT_SET_NO":999,"REV_AT_EPOCH":130,"BSTAR":0.0022017,"MEAN_MOTION_DOT":0.000349,"MEAN_MOTION_DDOT":0},{"OBJECT_NAME":"STARLINK-3771","OBJECT_ID":"2022-041AJ","EPOCH":"2022-09-07T22:00:00.999936","MEAN_MOTION":15.08835566,"ECCENTRICITY":0.000162,"INCLINATION":53.216,"RA_OF_ASC_NODE":79.7528,"ARG_OF_PERICENTER":63.1355,"MEAN_ANOMALY":225.3588,"EPHEMERIS_TYPE":0,"CLASSIFICATION_TYPE":"U","NORAD_CAT_ID":52293,"ELEMENT_SET_NO":999,"REV_AT_EPOCH":130,"BSTAR":0.0014509,"MEAN_MOTION_DOT":0.00022876,"MEAN_MOTION_DDOT":0}]