STARLINK-3787           
1 52277U 22041S   22251.25001157 -.00021817  00000+0 -13564-2 0  9996
2 52277  53.2176  88.2495 0001566  60.8947 324.1407 15.08852086 22599
STARLINK-3780           
1 52278U 22041T   22251.25001157 -.00036024  00000+0 -22552-2 0  9990
2 52278  53.2177  88.2535 0001640  68.0766  17.0072 15.08864089 22590
STARLINK-3686           
1 52279U 22041U   22250.91667824  .00019376  00000+0  12331-2 0  9995
2 52279  53.2192  89.7486 0001767  57.4553 330.8628 15.08811906  1304
STARLINK-3764           
1 52280U 22041V   22250.91667824  .00022457  00000+0  14253-2 0  9996
2 52280  53.2175  89.7667 0002245  61.4777  71.9068 15.08821096  1305
STARLINK-3779           
1 52281U 22041W   22251.25001157 -.00031249  00000+0 -19539-2 0  9999
2 52281  53.2183  88.2509 0001587  62.2750 357.6725 15.08839348 22599
STARLINK-3783           
1 52282U 22041X   22250.91667824  .00016870  00000+0  10756-2 0  9994
2 52282  53.2146  79.7504 0001987  57.5746 110.9300 15.08836953  1309
STARLINK-3789           
1 52283U 22041Y   22250.91667824  .00021077  00000+0  13393-2 0  9990
2 52283  53.2188  89.7600 0001734  59.4052  34.1074 15.08816139  1304
STARLINK-3561           
1 52284U 22041Z   22250.91667824  .00017617  00000+0  11223-2 0  9996
2 52284  53.2153  79.7499 0001884  58.7273 149.7963 15.08836104  1309
STARLINK-3775           
1 52285U 22041AA  22250.91667824  .00021937  00000+0  13932-2 0  9996
2 52285  53.2179  89.7658 0001856  61.0163  52.4837 15.08810959  1300
STARLINK-3802           
1 52286U 22041AB  22250.91667824  .00037918  00000+0  23900-2 0  9999
2 52286  53.2148  79.7471 0001733  58.7036 189.8073 15.08805180  1302
STARLINK-3822           
1 52287U 22041AC  22251.25001157 -.00019785  00000+0 -12281-2 0  9993
2 52287  53.2167  88.2667 0001750  69.5044  95.5113 15.08849239 22599
STARLINK-3776           
1 52288U 22041AD  22250.91667824  .00038110  00000+0  24018-2 0  9997
2 52288  53.2160  79.7519 0001785  59.9923 208.5199 15.08807595  1306
STARLINK-3751           
1 52289U 22041AE  22250.91667824  .00036369  00000+0  22931-2 0  9994
2 52289  53.2158  79.7529 0001735  66.2028 122.2479 15.08813225  1307
STARLINK-3772           
1 52290U 22041AF  22250.91667824  .00011819  00000+0  75945-3 0  9993
2 52290  53.2158  79.7518 0001573  60.9914 262.3354 15.08837928  1306
STARLINK-3773           
1 52291U 22041AG  22250.91667824  .00037928  00000+0  23896-2 0  9990
2 52291  53.2154  79.7505 0001831  57.9321 170.5658 15.08821279  1303
STARLINK-3753           
1 52292U 22041AH  22250.91667824  .00034900  00000+0  22017-2 0  9992
2 52292  53.2162  79.7452 0001601  73.7985 274.6574 15.08812643  1309
STARLINK-3771           
1 52293U 22041AJ  22250.91667824  .00022876  00000+0  14509-2 0  9999
2 52293  53.2160  79.7528 0001620  63.1355 225.3588 15.08835566  1304
